ATLAS CENTAUR 2         
1 00694U 63047A   26175.06434615  .00000769  00000+0  79418-4 0  9993
2 00694  30.3583 320.9368 0545977 298.1481  56.4996 14.12529651146673
THOR AGENA D R/B        
1 00733U 64002A   26175.06425048  .00000114  00000+0  57921-4 0  9998
2 00733  99.1152 194.1672 0032012 310.1017  49.7361 14.34067654253542
SL-3 R/B                
1 00877U 64053B   26174.96774050  .00000075  00000+0  38758-4 0  9994
2 00877  65.0776  19.6311 0080857 258.9666 100.2332 14.61429220282325
SL-8 R/B                
1 02802U 67045B   26175.21343177  .00000192  00000+0  60562-4 0  9997
2 02802  74.0099 149.1355 0063211 131.6494 229.0102 14.45684832104413
SL-8 R/B                
1 03230U 68040B   26175.16811292  .00001972  00000+0  14546-3 0  9998
2 03230  74.0305  96.0139 0025816 248.0054 111.8391 15.03844717106014
OAO 2                   
1 03597U 68110A   26174.88408715  .00000161  00000+0  48378-4 0  9992
2 03597  34.9948  32.2860 0005922 322.6527  37.3752 14.47354357 34499
ISIS 1                  
1 03669U 69009A   26175.18386595  .00000060  00000+0  42601-4 0  9996
2 03669  88.4430 143.6309 1706472 234.0851 108.9796 11.30434535360568
SERT 2                  
1 04327U 70009A   26175.09262025 -.00000008  00000+0  45776-4 0  9990
2 04327  99.2841 112.4353 0003929 251.4412 119.1682 13.58739754794349
SL-3 R/B                
1 05118U 71028B   26175.19353083  .00048322  00000+0  39291-3 0  9991
2 05118  81.2326 279.5710 0014178 254.7841 105.1850 15.70345759  5340
ASTEX 1                 
1 05560U 71089A   26175.03822713  .00000306  00000+0  77724-4 0  9997
2 05560  92.6996 186.0622 0018002  86.1659 274.1605 14.50855859877726
SL-8 R/B                
1 05730U 71119B   26175.17534846  .00002865  00000+0  14874-3 0  9990
2 05730  73.8877 336.3618 0543661 280.9234  73.1231 14.39543376670803
OAO 3 (COPERNICUS)      
1 06153U 72065A   26175.02037998  .00000235  00000+0  52472-4 0  9997
2 06153  35.0067  51.4691 0007163 306.2980 188.1925 14.60063549861747
ATLAS CENTAUR R/B       
1 06155U 72065B   26174.62800386  .00000746  00000+0  10424-3 0  9990
2 06155  35.0026  44.7820 0033555 183.5869 176.4595 14.77931071856940
SL-8 R/B                
1 08459U 75112B   26175.20514301  .00000263  00000+0  95016-4 0  9994
2 08459  74.0589 182.9629 0016804 249.1034 110.8321 14.38250040647189
SL-3 R/B                
1 10114U 77057B   26175.26323678  .00009414  00000+0  18187-3 0  9996
2 10114  97.5845 352.1472 0005600 252.6316 107.4322 15.48010021684804
SEASAT 1                
1 10967U 78064A   26175.22555496  .00000164  00000+0  84263-4 0  9994
2 10967 108.0179 349.0637 0001609 240.2961 119.8024 14.46247412521911
SL-14 R/B               
1 11267U 79011B   26175.21738341  .00000489  00000+0  45540-4 0  9997
2 11267  82.5237 355.4813 0017380  64.1913 296.1098 14.92019862544660
SL-8 R/B                
1 11574U 79089B   26175.20999310  .00000163  00000+0  57302-4 0  9995
2 11574  74.0687 253.8573 0015175  34.9737 325.2413 14.42406776451468
SL-14 R/B               
1 11672U 80005B   26175.16636448  .00000359  00000+0  33628-4 0  9991
2 11672  82.5133 206.2199 0016132 162.8052 197.3717 14.91033440492354
SL-8 R/B                
1 12139U 81003B   26175.28894803  .00015016  00000+0  36408-3 0  9997
2 12139  82.9372 191.1722 0250562 166.3643 194.4533 15.14424004330797
SL-3 R/B                
1 12465U 81046B   26175.25221043  .00010533  00000+0  22656-3 0  9992
2 12465  81.2295 161.5572 0017778  13.8725 346.3004 15.44328177454869
SL-3 R/B                
1 12904U 81103B   26175.21856420  .00003676  00000+0  15814-3 0  9991
2 12904  81.1586  88.3726 0011505 289.7113  70.2878 15.22335408989432
SL-3 R/B                
1 13068U 82013B   26175.18786991  .00002881  00000+0  12128-3 0  9997
2 13068  81.1739  35.8401 0021890 177.0594 183.0771 15.22824557420557
SL-3 R/B                
1 13154U 82039B   26175.18886619  .00003048  00000+0  18163-3 0  9990
2 13154  81.1463  92.9960 0028010 332.4149  27.5588 15.10578119397711
SL-3 R/B                
1 13403U 82079B   26175.19884313  .00003746  00000+0  14417-3 0  9994
2 13403  81.1462  67.1936 0024232 161.8777 198.3326 15.25837042393933
SL-14 R/B               
1 13553U 82092B   26175.12935398  .00000300  00000+0  30846-4 0  9996
2 13553  82.5677  41.8072 0019096 311.1210 165.7014 14.86751694344747
SL-3 R/B                
1 13819U 83010B   26175.16346541  .00012215  00000+0  22102-3 0  9995
2 13819  81.1013 231.3720 0015094  38.8903 321.3426 15.49398060374411
SL-3 R/B                
1 14208U 83075B   26175.27892534  .00008473  00000+0  20900-3 0  9994
2 14208  97.6106 184.0731 0020038 202.3921 157.6452 15.40601475346558
COSMOS 1536             
1 14699U 84013A   26175.24849856  .00005279  00000+0  20917-3 0  9996
2 14699  82.5446   1.8111 0012556 267.2514  92.7287 15.25115341288852
SL-14 R/B               
1 14820U 84027B   26175.01563442  .00000375  00000+0  39941-4 0  9996
2 14820  82.5416 145.3136 0017528 346.5894  13.4854 14.86064167263423
